1 53909U 22119Z   22282.83334491  .00057502  00000-0  41214-3 0  9996
2 53909  53.2180 179.4057 0001203  63.0959 147.7481 15.73153289  2770